KOREASAT 116            
1 45920U 20048A   23331.77774787 -.00000353  00000+0  00000+0 0  9990
2 45920   0.0153 352.2872 0001193 260.8175 209.5424  1.00270389 12293
ZINYUAN-3               
1 45939U 20051A   23332.51334555  .00009853  00000+0  44237-3 0  9999
2 45939  97.3875  47.9386 0013164 349.0692  11.0256 15.21294870185701
TIANQI-10               
1 45941U 20051C   23332.51929215  .00055728  00000+0  91208-3 0  9997
2 45941  97.4139  66.9791 0006185 254.1365 105.9206 15.52309811186858
EXPRESS 103             
1 45985U 20053A   23332.04798573 -.00000272  00000+0  00000+0 0  9997
2 45985   0.0169 313.3993 0000060 136.3261  90.7673  1.00273584 12294
EXPRESS 80              
1 45986U 20053B   23331.59376591 -.00000127  00000+0  00000+0 0  9998
2 45986   0.0199 300.0852 0000482 217.5109 202.4258  1.00272093 12291
GAOFEN-9 04             
1 46025U 20054A   23332.48859313  .00012443  00000+0  51772-3 0  9990
2 46025  97.3522  45.0655 0006694 311.5838  48.4825 15.23882561184124
Q-SAT                   
1 46026U 20054B   23332.47048557  .00057107  00000+0  97840-3 0  9992
2 46026  97.3579  56.8427 0008052 296.1967  63.8457 15.51003250184904
STARLINK-1522           
1 46027U 20055A   23332.10842550  .00035717  00000+0  24040-2 0  9993
2 46027  53.0557 264.2213 0001757  90.0279 270.0911 15.06408642182886
STARLINK-1523           
1 46028U 20055B   23332.12315849  .00028387  00000+0  19158-2 0  9991
2 46028  53.0547 264.1593 0001565  67.9868 292.1287 15.06422256182899
STARLINK-1526           
1 46029U 20055C   23332.04944398  .00045575  00000+0  30553-2 0  9990
2 46029  53.0553 264.4830 0001483  74.9179 285.1974 15.06442373182882
STARLINK-1534           
1 46030U 20055D   23332.06788067  .00020272  00000+0  13762-2 0  9993
2 46030  53.0548 264.4119 0001597 120.7782 239.3364 15.06391567182886
STARLINK-1544           
1 46031U 20055E   23332.20330457  .00038340  00000+0  25759-2 0  9990
2 46031  53.0544 263.7870 0001640  69.9330 290.1835 15.06442510182907
STARLINK-1555           
1 46032U 20055F   23332.10105951  .00025828  00000+0  17468-2 0  9994
2 46032  53.0544 264.2560 0001568  72.5470 287.5690 15.06393094182882
STARLINK-1556           
1 46033U 20055G   23332.08262111  .00025123  00000+0  16983-2 0  9993
2 46033  53.0554 264.3432 0001989  61.5939 298.5250 15.06425074182886
STARLINK-1557           
1 46034U 20055H   23331.62188500  .00024731  00000+0  16747-2 0  9994
2 46034  53.0541 266.4086 0001472  85.5375 274.5782 15.06369873183304
STARLINK-1558           
1 46035U 20055J   23332.09366948  .00034396  00000+0  23150-2 0  9995
2 46035  53.0561 264.2900 0001872 120.3500 239.7675 15.06428557182881
STARLINK-1560           
1 46036U 20055K   23332.21159636  .00002231  00000+0  16854-3 0  9991
2 46036  53.0551 263.7539 0001842 123.1563 236.9602 15.06421117182907
STARLINK-1565           
1 46037U 20055L   23332.07524171  .00028010  00000+0  18916-2 0  9999
2 46037  53.0541 264.3733 0001404  73.4808 286.6335 15.06405470182889
STARLINK-1567           
1 46038U 20055M   23332.08998868  .00046532  00000+0  31183-2 0  9999
2 46038  53.0550 264.3065 0002042  48.5780 311.5384 15.06445906182889
STARLINK-1569           
1 46039U 20055N   23332.09737291  .00023305  00000+0  15781-2 0  9991
2 46039  53.0551 264.2746 0001693  75.5875 284.5301 15.06404687182881
STARLINK-1576           
1 46040U 20055P   23332.12684465  .00033198  00000+0  22351-2 0  9993
2 46040  53.0550 264.1415 0001553  64.1764 295.9385 15.06434125182899
STARLINK-1580           
1 46041U 20055Q   23332.13790005  .00054562  00000+0  36414-2 0  9996
2 46041  53.0553 264.1745 0002042  68.7934 291.3273 15.06523753182894
STARLINK-1581           
1 46042U 20055R   23332.11210417  .00042641  00000+0  28610-2 0  9993
2 46042  53.0549 264.2065 0001604  68.0045 292.1115 15.06442840182896
STARLINK-1582           
1 46043U 20055S   23332.10474417  .00030283  00000+0  20430-2 0  9996
2 46043  53.0544 264.2398 0001545  67.6241 292.4911 15.06403218182880
STARLINK-1584           
1 46044U 20055T   23332.18488030  .00026533  00000+0  17930-2 0  9995
2 46044  53.0551 263.8690 0001409  71.6390 288.4752 15.06409407182905
STARLINK-1591           
1 46045U 20055U   23332.13052418  .00058848  00000+0  39296-2 0  9991
2 46045  53.0535 264.1248 0001229  86.2183 273.8947 15.06467713182899
STARLINK-1524           
1 46047U 20055W   23332.01719317  .00042428  00000+0  28500-2 0  9991
2 46047  53.0562 254.6351 0001610  60.9510 299.1640 15.06402416183012
STARLINK-1527           
1 46048U 20055X   23331.81446920  .00043982  00000+0  29518-2 0  9992
2 46048  53.0543 255.5452 0001315 117.5057 242.6065 15.06418089183478
STARLINK-1530           
1 46049U 20055Y   23332.07615643  .00030437  00000+0  20510-2 0  9996
2 46049  53.0555 254.3702 0001509  69.2280 290.8871 15.06444426183006
STARLINK-1540           
1 46051U 20055AA  23332.11302558  .00045436  00000+0  30462-2 0  9994
2 46051  53.0540 254.2034 0001686  55.1413 304.9734 15.06441193183034
