OBJECT_NAME,OBJECT_ID,EPOCH,MEAN_MOTION,ECCENTRICITY,INCLINATION,RA_OF_ASC_NODE,ARG_OF_PERICENTER,MEAN_ANOMALY,EPHEMERIS_TYPE,CLASSIFICATION_TYPE,NORAD_CAT_ID,ELEMENT_SET_NO,REV_AT_EPOCH,BSTAR,MEAN_MOTION_DOT,MEAN_MOTION_DDOT
KOREASAT 116,2020-048A,2023-11-27T18:39:57.415968,1.00270389,.0001193,0.0153,352.2872,260.8175,209.5424,0,U,45920,999,1229,0,-.353E-5,0
ZINYUAN-3,2020-051A,2023-11-28T12:19:13.055520,15.21294870,.0013164,97.3875,47.9386,349.0692,11.0256,0,U,45939,999,18570,.44237E-3,.9853E-4,0
TIANQI-10,2020-051C,2023-11-28T12:27:46.841760,15.52309811,.0006185,97.4139,66.9791,254.1365,105.9206,0,U,45941,999,18685,.91208E-3,.55728E-3,0
EXPRESS 103,2020-053A,2023-11-28T01:09:05.967072,1.00273584,.000006,0.0169,313.3993,136.3261,90.7673,0,U,45985,999,1229,0,-.272E-5,0
EXPRESS 80,2020-053B,2023-11-27T14:15:01.374624,1.00272093,.0000482,0.0199,300.0852,217.5109,202.4258,0,U,45986,999,1229,0,-.127E-5,0
GAOFEN-9 04,2020-054A,2023-11-28T11:43:34.446432,15.23882561,.0006694,97.3522,45.0655,311.5838,48.4825,0,U,46025,999,18412,.51772E-3,.12443E-3,0
Q-SAT,2020-054B,2023-11-28T11:17:29.953248,15.51003250,.0008052,97.3579,56.8427,296.1967,63.8457,0,U,46026,999,18490,.9784E-3,.57107E-3,0
STARLINK-1522,2020-055A,2023-11-28T02:36:07.963200,15.06408642,.0001757,53.0557,264.2213,90.0279,270.0911,0,U,46027,999,18288,.2404E-2,.35717E-3,0
STARLINK-1523,2020-055B,2023-11-28T02:57:20.893536,15.06422256,.0001565,53.0547,264.1593,67.9868,292.1287,0,U,46028,999,18289,.19158E-2,.28387E-3,0
STARLINK-1526,2020-055C,2023-11-28T01:11:11.959872,15.06442373,.0001483,53.0553,264.4830,74.9179,285.1974,0,U,46029,999,18288,.30553E-2,.45575E-3,0
STARLINK-1534,2020-055D,2023-11-28T01:37:44.889888,15.06391567,.0001597,53.0548,264.4119,120.7782,239.3364,0,U,46030,999,18288,.13762E-2,.20272E-3,0
STARLINK-1544,2020-055E,2023-11-28T04:52:45.514848,15.06442510,.000164,53.0544,263.7870,69.9330,290.1835,0,U,46031,999,18290,.25759E-2,.3834E-3,0
STARLINK-1555,2020-055F,2023-11-28T02:25:31.541664,15.06393094,.0001568,53.0544,264.2560,72.5470,287.5690,0,U,46032,999,18288,.17468E-2,.25828E-3,0
STARLINK-1556,2020-055G,2023-11-28T01:58:58.463904,15.06425074,.0001989,53.0554,264.3432,61.5939,298.5250,0,U,46033,999,18288,.16983E-2,.25123E-3,0
STARLINK-1557,2020-055H,2023-11-27T14:55:30.864000,15.06369873,.0001472,53.0541,266.4086,85.5375,274.5782,0,U,46034,999,18330,.16747E-2,.24731E-3,0
STARLINK-1558,2020-055J,2023-11-28T02:14:53.043072,15.06428557,.0001872,53.0561,264.2900,120.3500,239.7675,0,U,46035,999,18288,.2315E-2,.34396E-3,0
STARLINK-1560,2020-055K,2023-11-28T05:04:41.925504,15.06421117,.0001842,53.0551,263.7539,123.1563,236.9602,0,U,46036,999,18290,.16854E-3,.2231E-4,0
STARLINK-1565,2020-055L,2023-11-28T01:48:20.883744,15.06405470,.0001404,53.0541,264.3733,73.4808,286.6335,0,U,46037,999,18288,.18916E-2,.2801E-3,0
STARLINK-1567,2020-055M,2023-11-28T02:09:35.021952,15.06445906,.0002042,53.0550,264.3065,48.5780,311.5384,0,U,46038,999,18288,.31183E-2,.46532E-3,0
STARLINK-1569,2020-055N,2023-11-28T02:20:13.019424,15.06404687,.0001693,53.0551,264.2746,75.5875,284.5301,0,U,46039,999,18288,.15781E-2,.23305E-3,0
STARLINK-1576,2020-055P,2023-11-28T03:02:39.377760,15.06434125,.0001553,53.0550,264.1415,64.1764,295.9385,0,U,46040,999,18289,.22351E-2,.33198E-3,0
STARLINK-1580,2020-055Q,2023-11-28T03:18:34.564320,15.06523753,.0002042,53.0553,264.1745,68.7934,291.3273,0,U,46041,999,18289,.36414E-2,.54562E-3,0
STARLINK-1581,2020-055R,2023-11-28T02:41:25.800288,15.06442840,.0001604,53.0549,264.2065,68.0045,292.1115,0,U,46042,999,18289,.2861E-2,.42641E-3,0
STARLINK-1582,2020-055S,2023-11-28T02:30:49.896288,15.06403218,.0001545,53.0544,264.2398,67.6241,292.4911,0,U,46043,999,18288,.2043E-2,.30283E-3,0
STARLINK-1584,2020-055T,2023-11-28T04:26:13.657920,15.06409407,.0001409,53.0551,263.8690,71.6390,288.4752,0,U,46044,999,18290,.1793E-2,.26533E-3,0
STARLINK-1591,2020-055U,2023-11-28T03:07:57.289152,15.06467713,.0001229,53.0535,264.1248,86.2183,273.8947,0,U,46045,999,18289,.39296E-2,.58848E-3,0
STARLINK-1524,2020-055W,2023-11-28T00:24:45.489888,15.06402416,.000161,53.0562,254.6351,60.9510,299.1640,0,U,46047,999,18301,.285E-2,.42428E-3,0
STARLINK-1527,2020-055X,2023-11-27T19:32:50.138880,15.06418089,.0001315,53.0543,255.5452,117.5057,242.6065,0,U,46048,999,18347,.29518E-2,.43982E-3,0
STARLINK-1530,2020-055Y,2023-11-28T01:49:39.915552,15.06444426,.0001509,53.0555,254.3702,69.2280,290.8871,0,U,46049,999,18300,.2051E-2,.30437E-3,0
STARLINK-1540,2020-055AA,2023-11-28T02:42:45.410112,15.06441193,.0001686,53.0540,254.2034,55.1413,304.9734,0,U,46051,999,18303,.30462E-2,.45436E-3,0
